     2              NAVIGATION DATA                         RINEX VERSION / TYPE
CCRINEXN V1.6.0 UX  CDDIS               11-OCT-21 23:30     PGM / RUN BY / DATE 
IGS BROADCAST EPHEMERIS FILE                                COMMENT             
    0.1118D-07  0.0000D+00 -0.5960D-07  0.0000D+00          ION ALPHA           
    0.9011D+05  0.0000D+00 -0.1966D+06  0.0000D+00          ION BETA            
   -0.931322574615D-09-0.355271367880D-14   405504     2179 DELTA-UTC: A0,A1,T,W
    18                                                      LEAP SECONDS        
                                                            END OF HEADER       
19 21 10 11 12  0  0.0 0.644358806312D-04 0.500222085975D-11 0.000000000000D+00
    0.270000000000D+02 0.978125000000D+01 0.434160941689D-08 0.109989961729D+01
    0.355765223503D-06 0.903956452385D-02 0.289641320705D-05 0.515365581703D+04
    0.129600000000D+06-0.186264514923D-08-0.608717349852D+00-0.162050127983D-06
    0.979752831118D+00 0.333000000000D+03 0.195611859288D+01-0.823605735056D-08
    0.482162941165D-10 0.100000000000D+01 0.217900000000D+04 0.000000000000D+00
    0.200000000000D+01 0.000000000000D+00-0.153668224812D-07 0.270000000000D+02
    0.122418000000D+06 0.400000000000D+01 0.000000000000D+00 0.000000000000D+00
20 21 10 11 12  0  0.0 0.518692657352D-03-0.227373675443D-12 0.000000000000D+00
    0.630000000000D+02-0.516875000000D+02 0.491234747613D-08-0.236705840219D+01
   -0.268407166004D-05 0.553438381758D-02 0.893138349056D-05 0.515367182350D+04
    0.129600000000D+06-0.108033418655D-06 0.122885758831D+01-0.745058059692D-07
    0.939739667815D+00 0.194593750000D+03 0.300079871124D+01-0.812676708390D-08
    0.284297556420D-09 0.100000000000D+01 0.217900000000D+04 0.000000000000D+00
    0.200000000000D+01 0.000000000000D+00-0.838190317154D-08 0.630000000000D+02
    0.122418000000D+06 0.400000000000D+01 0.000000000000D+00 0.000000000000D+00
21 21 10 11 12  0  0.0 0.147086568177D-03 0.181898940355D-11 0.000000000000D+00
    0.630000000000D+02-0.982500000000D+02 0.470448167483D-08-0.117224447267D+01
   -0.509060919285D-05 0.241062444402D-01 0.647082924843D-05 0.515363369179D+04
    0.129600000000D+06-0.441446900368D-06 0.255678590245D+00-0.447034835815D-07
    0.958682379598D+00 0.261687500000D+03-0.107354520661D+01-0.858714340328D-08
    0.130362572982D-09 0.100000000000D+01 0.217900000000D+04 0.000000000000D+00
    0.200000000000D+01 0.000000000000D+00-0.102445483208D-07 0.630000000000D+02
    0.122418000000D+06 0.400000000000D+01 0.000000000000D+00 0.000000000000D+00
22 21 10 11 12  0  0.0-0.491922721267D-03 0.920863385545D-11 0.000000000000D+00
    0.800000000000D+01-0.611250000000D+02 0.493091967831D-08-0.241690439528D+01
   -0.308267772198D-05 0.672362628393D-02 0.952556729317D-05 0.515371581459D+04
    0.129600000000D+06-0.502914190292D-07 0.127494454464D+01 0.165775418282D-06
    0.936422060732D+00 0.179906250000D+03-0.888743156954D+00-0.803890628129D-08
    0.364300888880D-09 0.100000000000D+01 0.217900000000D+04 0.000000000000D+00
    0.200000000000D+01 0.000000000000D+00-0.176951289177D-07 0.800000000000D+01
    0.122418000000D+06 0.400000000000D+01 0.000000000000D+00 0.000000000000D+00
23 21 10 11 12  0  0.0 0.464827753604D-04-0.466116034659D-11 0.000000000000D+00
    0.380000000000D+02-0.421250000000D+02 0.445839999597D-08 0.228024490080D+01
   -0.216066837311D-05 0.177922658622D-02 0.942312180996D-05 0.515367957497D+04
    0.129600000000D+06 0.111758708954D-07 0.135222574936D+01 0.372529029846D-07
    0.965497611685D+00 0.200156250000D+03 0.272873624604D+01-0.791925844033D-08
    0.343228582562D-09 0.100000000000D+01 0.217900000000D+04 0.000000000000D+00
    0.200000000000D+01 0.000000000000D+00-0.838190317154D-08 0.380000000000D+02
    0.127368000000D+06 0.400000000000D+01 0.000000000000D+00 0.000000000000D+00
24 21 10 11 12  0  0.0 0.251695048064D-03 0.636646291241D-11 0.000000000000D+00
    0.320000000000D+02 0.131562500000D+02 0.495020619596D-08 0.309869774209D+01
    0.635161995888D-06 0.117400900926D-01 0.940449535847D-05 0.515371026421D+04
    0.129600000000D+06-0.353902578354D-07-0.288326972188D+01-0.132247805595D-06
    0.935119952459D+00 0.182656250000D+03 0.764751421229D+00-0.800247619240D-08
   -0.376801409577D-09 0.100000000000D+01 0.217900000000D+04 0.000000000000D+00
    0.200000000000D+01 0.000000000000D+00 0.279396772385D-08 0.320000000000D+02
    0.122479000000D+06 0.400000000000D+01 0.000000000000D+00 0.000000000000D+00
25 21 10 11 12  0  0.0 0.222646165639D-03 0.613908923697D-11 0.000000000000D+00
    0.910000000000D+02 0.100031250000D+03 0.438161108312D-08 0.124610843973D+01
    0.514648854732D-05 0.987069925759D-02 0.752881169319D-05 0.515377606964D+04
    0.129600000000D+06-0.147148966789D-06-0.176609193757D+01 0.372529029846D-07
    0.959083517587D+00 0.233437500000D+03 0.962425551013D+00-0.817355474708D-08
   -0.600024993449D-10 0.100000000000D+01 0.217900000000D+04 0.000000000000D+00
    0.200000000000D+01 0.000000000000D+00 0.558793544769D-08 0.910000000000D+02
    0.127968000000D+06 0.400000000000D+01 0.000000000000D+00 0.000000000000D+00
26 21 10 11 12  0  0.0 0.143716577440D-03 0.409272615798D-11 0.000000000000D+00
    0.900000000000D+02 0.112718750000D+03 0.476805575152D-08 0.578108932855D+00
    0.591203570366D-05 0.623643409926D-02 0.746920704842D-05 0.515364296150D+04
    0.129600000000D+06 0.651925802231D-07-0.181074292423D+01 0.106170773506D-06
    0.939988690119D+00 0.223125000000D+03 0.294658971420D+00-0.826891586211D-08
   -0.571452374714D-10 0.100000000000D+01 0.217900000000D+04 0.000000000000D+00
    0.200000000000D+01 0.000000000000D+00 0.698491930962D-08 0.900000000000D+02
    0.122418000000D+06 0.400000000000D+01 0.000000000000D+00 0.000000000000D+00
27 21 10 11 12  0  0.0-0.204787589610D-03-0.500222085975D-11 0.000000000000D+00
    0.130000000000D+02 0.210312500000D+02 0.436053877680D-08-0.133198463926D+01
    0.112317502499D-05 0.956999289338D-02 0.198185443878D-05 0.515364654541D+04
    0.129600000000D+06 0.193715095520D-06-0.715330824240D+00-0.108033418655D-06
    0.974722277164D+00 0.345781250000D+03 0.631782994881D+00-0.827320175492D-08
    0.103575742917D-09 0.100000000000D+01 0.217900000000D+04 0.000000000000D+00
    0.200000000000D+01 0.000000000000D+00 0.186264514923D-08 0.130000000000D+02
    0.122418000000D+06 0.400000000000D+01 0.000000000000D+00 0.000000000000D+00
28 21 10 11 12  0  0.0 0.484609510750D-03-0.727595761418D-11 0.000000000000D+00
    0.610000000000D+02 0.986250000000D+02 0.425410577201D-08-0.805422809893D+00
    0.523403286934D-05 0.174671008717D-01 0.796280801296D-05 0.515371952057D+04
    0.129600000000D+06-0.242143869400D-06-0.166866134333D+01 0.912696123123D-07
    0.970786695448D+00 0.238093750000D+03-0.132712918929D+01-0.821177062464D-08
    0.197151069276D-09 0.100000000000D+01 0.217900000000D+04 0.000000000000D+00
    0.280000000000D+01 0.630000000000D+02-0.111758708954D-07 0.610000000000D+02
    0.122418000000D+06 0.400000000000D+01 0.000000000000D+00 0.000000000000D+00
29 21 10 11 12  0  0.0-0.424644444138D-03-0.557065504836D-11 0.000000000000D+00
    0.760000000000D+02 0.353125000000D+01 0.418660296025D-08-0.128943864689D+01
    0.782310962677D-07 0.190175138414D-02 0.277347862721D-05 0.515357002449D+04
    0.129600000000D+06 0.167638063431D-07-0.640979155400D+00-0.186264514923D-08
    0.983024724937D+00 0.342562500000D+03 0.236480449747D+01-0.813462455405D-08
    0.442875590403D-10 0.100000000000D+01 0.217900000000D+04 0.000000000000D+00
    0.200000000000D+01 0.000000000000D+00-0.102445483208D-07 0.760000000000D+02
    0.123409000000D+06 0.400000000000D+01 0.000000000000D+00 0.000000000000D+00
30 21 10 11 12  0  0.0-0.481341499835D-03-0.352429196937D-11 0.000000000000D+00
    0.250000000000D+02 0.184375000000D+02 0.504306720685D-08 0.203029397570D+01
    0.953674316406D-06 0.534070120193D-02 0.934302806854D-05 0.515363300514D+04
    0.129600000000D+06-0.124797224999D-06-0.278764212151D+01-0.316649675369D-07
    0.936837048166D+00 0.189218750000D+03-0.273554801686D+01-0.815105380982D-08
   -0.478591363823D-09 0.100000000000D+01 0.217900000000D+04 0.000000000000D+00
    0.200000000000D+01 0.000000000000D+00 0.372529029846D-08 0.250000000000D+02
    0.122418000000D+06 0.400000000000D+01 0.000000000000D+00 0.000000000000D+00
31 21 10 11 12  0  0.0-0.144371297210D-03-0.193267624127D-11 0.000000000000D+00
    0.800000000000D+02 0.330312500000D+02 0.453340312015D-08 0.166851629940D+01
    0.191107392311D-05 0.102656448726D-01 0.987388193607D-05 0.515362531471D+04
    0.129600000000D+06-0.651925802231D-07-0.278512419812D+01 0.113621354103D-06
    0.955927127002D+00 0.190750000000D+03 0.308790343134D+00-0.791104381244D-08
   -0.522521765129D-09 0.100000000000D+01 0.217900000000D+04 0.000000000000D+00
    0.200000000000D+01 0.000000000000D+00-0.130385160446D-07 0.800000000000D+02
    0.122418000000D+06 0.400000000000D+01 0.000000000000D+00 0.000000000000D+00
32 21 10 11 12  0  0.0-0.904873013496D-05-0.397903932026D-11 0.000000000000D+00
    0.600000000000D+02-0.132187500000D+02 0.497234997548D-08-0.575925093135D+00
   -0.759959220886D-06 0.511954596732D-02 0.685080885887D-05 0.515371799469D+04
    0.129600000000D+06 0.298023223877D-07 0.241930685494D+01 0.121071934700D-06
    0.957638619732D+00 0.247500000000D+03-0.238461151004D+01-0.820319883902D-08
   -0.717887045734D-10 0.100000000000D+01 0.217900000000D+04 0.000000000000D+00
    0.200000000000D+01 0.000000000000D+00 0.465661287308D-09 0.600000000000D+02
    0.122419000000D+06 0.400000000000D+01 0.000000000000D+00 0.000000000000D+00
